KUIPER-00157            
1 65970U 25228Z   25310.72279110  .00028895  00000+0  85522-3 0  9992
2 65970  51.8793 194.1585 0005606 235.1880 124.8578 15.34647468  4882
